ISS OBJECT XX           
1 66911U 98067XX  26068.51628204  .00244098  00000+0  15443-2 0  9998
2 66911  51.6211  64.9631 0006920  81.6711 278.5073 15.75275776 15168
ISS OBJECT XY           
1 66912U 98067XY  26068.26206831  .00094078  00000+0  98678-3 0  9992
2 66912  51.6273  69.2991 0003192  85.1778 274.9581 15.63596680 15086
ISS OBJECT XZ           
1 67683U 98067XZ  26068.27683824  .00041312  00000+0  68223-3 0  9996
2 67683  51.6309  73.9008 0009392 184.4289 175.6619 15.51788436  4728
GXIBA-1                 
1 67684U 98067YA  26068.31453739  .00079693  00000+0  11905-2 0  9999
2 67684  51.6300  73.4032 0011013 174.4815 185.6299 15.54259962  4735
CORAL                   
1 67685U 98067YB  26068.40126969  .00044538  00000+0  72424-3 0  9996
2 67685  51.6314  73.2314 0011355 181.5585 178.5371 15.52162760  4744
ISS OBJECT YC           
1 67686U 98067YC  26068.26712494  .00051700  00000+0  82449-3 0  9992
2 67686  51.6312  73.8379 0007896 148.5060 211.6404 15.52676056  4728
LEOPARD                 
1 67687U 98067YD  26068.27454703  .00044513  00000+0  72992-3 0  9996
2 67687  51.6319  73.8870 0007819 152.8350 207.3050 15.51966713  4648
ISS OBJECT YE           
1 67688U 98067YE  26068.46266862  .00046321  00000+0  74598-3 0  9998
2 67688  51.6313  72.8934 0007882 149.9304 210.2140 15.52452286  4671
CREW DRAGON 12          
1 67796U 26031A   26068.44878279  .00007802  00000+0  15192-3 0  9995
2 67796  51.6321  73.5472 0008027 173.5451 186.5642 15.48542052556189
